[{"OBJECT_NAME":"STARLINK-32322","OBJECT_ID":"2024-196P","EPOCH":"2026-03-09T07:22:37.530912","MEAN_MOTION":15.30193314,"ECCENTRICITY":0.00012425,"INCLINATION":53.1608,"RA_OF_ASC_NODE":103.429,"ARG_OF_PERICENTER":88.385,"MEAN_ANOMALY":271.7293,"EPHEMERIS_TYPE":0,"CLASSIFICATION_TYPE":"U","NORAD_CAT_ID":61720,"ELEMENT_SET_NO":999,"REV_AT_EPOCH":7709,"BSTAR":3.428676e-5,"MEAN_MOTION_DOT":6.56e-6,"MEAN_MOTION_DDOT":0},{"OBJECT_NAME":"DELTA 1 DEB","OBJECT_ID":"1977-065GM","EPOCH":"2026-03-08T23:45:45.164448","MEAN_MOTION":14.64470388,"ECCENTRICITY":0.03371849,"INCLINATION":29.2751,"RA_OF_ASC_NODE":329.7443,"ARG_OF_PERICENTER":142.9017,"MEAN_ANOMALY":219.5388,"EPHEMERIS_TYPE":0,"CLASSIFICATION_TYPE":"U","NORAD_CAT_ID":39100,"ELEMENT_SET_NO":999,"REV_AT_EPOCH":71741,"BSTAR":0.001056012,"MEAN_MOTION_DOT":0.00013572,"MEAN_MOTION_DDOT":0}]
